[{"OBJECT_NAME":"STARLINK-5754","OBJECT_ID":"2023-020L","EPOCH":"2026-03-09T22:00:01.999584","MEAN_MOTION":15.10899351,"ECCENTRICITY":0.00010973,"INCLINATION":43.0004,"RA_OF_ASC_NODE":3.1467,"ARG_OF_PERICENTER":303.9575,"MEAN_ANOMALY":160.1535,"EPHEMERIS_TYPE":0,"CLASSIFICATION_TYPE":"U","NORAD_CAT_ID":55579,"ELEMENT_SET_NO":999,"REV_AT_EPOCH":573,"BSTAR":0.072815742,"MEAN_MOTION_DOT":0.01342281,"MEAN_MOTION_DDOT":0},{"OBJECT_NAME":"IHI-SAT2","OBJECT_ID":"2025-276DL","EPOCH":"2026-03-09T17:30:40.180608","MEAN_MOTION":15.20112566,"ECCENTRICITY":0.00018696,"INCLINATION":97.4302,"RA_OF_ASC_NODE":144.214,"ARG_OF_PERICENTER":154.4631,"MEAN_ANOMALY":205.6697,"EPHEMERIS_TYPE":0,"CLASSIFICATION_TYPE":"U","NORAD_CAT_ID":66772,"ELEMENT_SET_NO":999,"REV_AT_EPOCH":1533,"BSTAR":0.00038428592,"MEAN_MOTION_DOT":8.239e-5,"MEAN_MOTION_DDOT":0}]
